#aV2014  1 17  0  0  0.00000000     288 DD+AD WGS84 FIT  NGA
## 1775 432000.00000000   300.00000000 56674 0.0000000000000
+   31     1  2  3  4  5  6  7  8  9 10 11 12 13 14 15 16 17
+         18 19 20 21 22 23 24 25 26 27 28 29 31 32  0  0  0
+          0  0  0  0  0  0  0  0  0  0  0  0  0  0  0  0  0
+          0  0  0  0  0  0  0  0  0  0  0  0  0  0  0  0  0
+          0  0  0  0  0  0  0  0  0  0  0  0  0  0  0  0  0
++         2  2  2  2  2  2  2  2  2  2  2  2  2  2  2  2  2
++         2  2  2  2  2  2  2  2  2  2  2  2  2  2  0  0  0
++         0  0  0  0  0  0  0  0  0  0  0  0  0  0  0  0  0
++         0  0  0  0  0  0  0  0  0  0  0  0  0  0  0  0  0
++         0  0  0  0  0  0  0  0  0  0  0  0  0  0  0  0  0
%c cc cc ccc ccc cccc cccc cccc cccc ccccc ccccc ccccc ccccc
%c cc cc ccc ccc cccc cccc cccc cccc ccccc ccccc ccccc ccccc
%f  0.0000000  0.000000000  0.00000000000  0.000000000000000
%f  0.0000000  0.000000000  0.00000000000  0.000000000000000
%i    0    0    0    0      0      0      0      0         0
%i    0    0    0    0      0      0      0      0         0
/*      NGA, ST. LOUIS,MO.                                  
/*   EPHEMERIS COMPUTED FROM  1 DAYS OF DATA                
/*   EPOCHA SMOOTHER                                       
/* CCCCCCCCCCCCCCCCCCCCCCCCCCCCCCCCCCCCCCCCCCCCCCCCCCCCCCCCC
*  2014  1 17 20 50  0.00000000
P  1 -14022.182969   6984.505603  21400.309917    101.133721                    
V  1  -4894.489281 -26833.050888   5657.086770      0.024676                    
P  2  14219.821228  16951.249255 -14799.998176    473.342811                    
V  2   1319.904234  19178.388586  22342.678890      0.021719                    
P  3 -25190.587175  -8137.520920  -3631.330824    313.779588                    
V  3   4565.064969  -2419.371111 -30667.853627      0.050502                    
P  4   6531.108077  25476.964574  -2877.047342      4.901243                    
V  4  -3071.285326   3902.038085  31124.200225      0.001683                    
P  5  16932.700039   4678.631242 -20007.867128   -392.010737                    
V  5 -18788.551016  17003.648287 -11791.531673      0.013003                    
P  6 -21257.752913 -13366.782899  -9196.494309    239.698527                    
V  6  11948.460379    743.704246 -28141.053736      0.153393                    
P  7  -6961.722886  20922.358879 -14499.368217    303.832414                    
V  7  -4625.730839 -18160.177328 -24182.924677      0.041876                    
P  8  -1333.651776  25887.701192  -3863.107428     11.376184                    
V  8  -2365.537317  -5054.803264 -32458.106978      0.002512                    
P  9   1169.890335  26130.448547  -4623.608156    298.771881                    
V  9  -2950.022460  -4801.620738 -31636.026430      0.027546                    
P 10    264.104775  18068.974625 -19658.928247   -110.438715                    
V 10 -20106.429595  14004.815874  13244.098317     -0.016460                    
P 11 -17883.485337   -812.132775  19195.860747   -456.426195                    
V 11 -10245.226056 -23591.753670 -10063.224573     -0.032989                    
P 12  22810.647777  -9866.045731   9009.851442    180.832261                    
V 12  -7966.842179   8594.804565  29629.076954      0.023013                    
P 13 -12719.812442   9685.971308 -21369.695875     38.879878                    
V 13 -23679.111469 -12426.725240   8375.450945     -0.038315                    
P 14  -5631.059875 -17338.969411  19578.777635    204.301565                    
V 14  22501.011094   9299.026144  14730.910132     -0.013051                    
P 15  25418.047287   2618.474207   7722.872220   -158.161740                    
V 15   8322.269849   6056.813137 -28980.284087     -0.020489                    
P 16 -16653.565913  -4464.791533 -20335.811787   -235.012304                    
V 16  20273.182215 -15613.917562 -12855.356279      0.013883                    
P 17   6714.246469  17312.389849  19324.603763    -60.122364                    
V 17 -22429.189571  -8379.750603  15264.066494     -0.034600                    
P 18  14487.044025 -20475.902991   8630.731585    296.703169                    
V 18  10516.905958  -3836.303256 -28492.396189      0.021255                    
P 19 -24862.207970  -6186.323275   7686.083625   -432.875640                    
V 19  -7859.124078  -6266.258098 -29550.976290     -0.025200                    
P 20 -21835.343206  13419.364338   6624.129695    153.823157                    
V 20   3823.204223  -8707.889677  29472.584731      0.032142                    
P 21   5511.125010 -22267.887880 -12352.352612   -338.776399                    
V 21   6323.136299  16071.071404 -25425.111127     -0.021819                    
P 22   3973.530256 -20045.523777  17084.572803    207.482692                    
V 22  18107.533398 -11844.269544 -18472.297963      0.024589                    
P 23 -22000.750133   2740.155268 -14821.099108     11.823081                    
V 23 -16842.306918  -8686.506134  22847.643068     -0.032759                    
P 24  15214.021767  -1603.198337  21705.955549    -21.713063                    
V 24   4694.810789  27185.634077  -1201.751497     -0.006490                    
P 25  19020.346798 -18236.625654  -2829.152851      9.649971                    
V 25   4281.794546   -365.176908  31874.637490      0.022295                    
P 26  22678.724266  13839.040191  -3594.614011    191.241327                    
V 26  -4201.564941    134.870908 -31474.496350     -0.106452                    
P 27 -22710.401825 -12627.157341  -5581.867477    -14.946406                    
V 27   7557.250150     -9.630399 -30712.132168     -0.019412                    
P 28  -7874.698215  19444.499755  16803.138470    325.408306                    
V 28 -17111.689547  10813.102491 -21456.249981      0.029938                    
P 29  15488.283388  -8182.605466 -19910.909743    504.052978                    
V 29  22816.941658  11133.763855  13183.709889      0.028486                    
P 31  -7247.781791 -24691.843534  -5716.334869    332.441448                    
V 31   1387.039627  -7780.925681  31253.669008      0.003528                    
P 32 -21403.865260   1288.284430  15383.958811   -500.276667                    
V 32  14738.458135 -13272.338974  22259.709390      0.056989                    
EOF
